{"type": "FeatureCollection", "features": [ {"type": "Feature", "properties": {"norad_id": 37689, "name": "FENGYUN 1C DEB", "group": "fengyun-1c-debris", "lat": -55.056460229847225, "lon": 41.92197718604318, "alt_km": 731.2862449764089, "timestamp": "2025-12-13T22:39:29.999660+00:00", "meta": {"OBJECT_NAME": "FENGYUN 1C DEB", "OBJECT_ID": "1999-025ELE", "EPOCH": "2025-12-12T02:09:35.469504", "MEAN_MOTION": 14.48626906, "ECCENTRICITY": 0.00208176, "INCLINATION": 98.92, "RA_OF_ASC_NODE": 26.9753, "ARG_OF_PERICENTER": 242.0212, "MEAN_ANOMALY": 117.8873, "EPHEMERIS_TYPE": 0, "CLASSIFICATION_TYPE": "U", "NORAD_CAT_ID": 37689, "ELEMENT_SET_NO": 999, "REV_AT_EPOCH": 57803, "BSTAR": 0.0037418292, "MEAN_MOTION_DOT": 0.00014096, "MEAN_MOTION_DDOT": 0}, "tle": {"line1": "1 37689U 99025ELE 25346.08999386  .00014096  00000+0  37418-2 0  9994", "line2": "2 37689  98.9200  26.9753 0020817 242.0212 117.8873 14.48626906578030"}}, "geometry": {"type": "Point", "coordinates": [41.92197718604318, -55.056460229847225]}}, {"type": "Feature", "properties": {"norad_id": 37691, "name": "FENGYUN 1C DEB", "group": "fengyun-1c-debris", "lat": 70.17974045469788, "lon": -132.47967726553364, "alt_km": 634.9705145398011, "timestamp": "2025-12-13T22:39:29.999670+00:00", "meta": {"OBJECT_NAME": "FENGYUN 1C DEB", "OBJECT_ID": "1999-025ELG", "EPOCH": "2025-12-12T23:15:32.501952", "MEAN_MOTION": 14.57661793, "ECCENTRICITY": 0.02804491, "INCLINATION": 98.3722, "RA_OF_ASC_NODE": 250.6552, "ARG_OF_PERICENTER": 149.3225, "MEAN_ANOMALY": 212.4713, "EPHEMERIS_TYPE": 0, "CLASSIFICATION_TYPE": "U", "NORAD_CAT_ID": 37691, "ELEMENT_SET_NO": 999, "REV_AT_EPOCH": 85637, "BSTAR": 0.0024155186, "MEAN_MOTION_DOT": 0.0001899, "MEAN_MOTION_DDOT": 0}, "tle": {"line1": "1 37691U 99025ELG 25346.96912618  .00018990  00000+0  24155-2 0  9998", "line2": "2 37691  98.3722 250.6552 0280449 149.3225 212.4713 14.57661793856375"}}, "geometry": {"type": "Point", "coordinates": [-132.47967726553364, 70.17974045469788]}}, {"type": "Feature", "properties": {"norad_id": 37693, "name": "FENGYUN 1C DEB", "group": "fengyun-1c-debris", "lat": -68.66588863627594, "lon": 10.75094883075482, "alt_km": 912.850879770247, "timestamp": "2025-12-13T22:39:29.999680+00:00", "meta": {"OBJECT_NAME": "FENGYUN 1C DEB", "OBJECT_ID": "1999-025ELJ", "EPOCH": "2025-12-11T12:02:22.115904", "MEAN_MOTION": 14.0848115, "ECCENTRICITY": 0.00724651, "INCLINATION": 98.6917, "RA_OF_ASC_NODE": 345.3396, "ARG_OF_PERICENTER": 78.2326, "MEAN_ANOMALY": 74.226, "EPHEMERIS_TYPE": 0, "CLASSIFICATION_TYPE": "U", "NORAD_CAT_ID": 37693, "ELEMENT_SET_NO": 999, "REV_AT_EPOCH": 62131, "BSTAR": 0.00083988698, "MEAN_MOTION_DOT": 1.434e-05, "MEAN_MOTION_DDOT": 0}, "tle": {"line1": "1 37693U 99025ELJ 25345.50164486  .00001434  00000+0  83989-3 0  9997", "line2": "2 37693  98.6917 345.3396 0072465  78.2326  74.2260 14.08481150621311"}}, "geometry": {"type": "Point", "coordinates": [10.75094883075482, -68.66588863627594]}}, {"type": "Feature", "properties": {"norad_id": 37694, "name": "FENGYUN 1C DEB", "group": "fengyun-1c-debris", "lat": 53.742489959296854, "lon": 44.12541740710149, "alt_km": 744.3197551193671, "timestamp": "2025-12-13T22:39:29.999691+00:00", "meta": {"OBJECT_NAME": "FENGYUN 1C DEB", "OBJECT_ID": "1999-025ELK", "EPOCH": "2025-12-13T00:55:31.373184", "MEAN_MOTION": 14.16656158, "ECCENTRICITY": 0.01474372, "INCLINATION": 98.1986, "RA_OF_ASC_NODE": 54.6268, "ARG_OF_PERICENTER": 92.6483, "MEAN_ANOMALY": 27.3421, "EPHEMERIS_TYPE": 0, "CLASSIFICATION_TYPE": "U", "NORAD_CAT_ID": 37694, "ELEMENT_SET_NO": 999, "REV_AT_EPOCH": 51708, "BSTAR": 0.0023714374, "MEAN_MOTION_DOT": 5.231e-05, "MEAN_MOTION_DDOT": 0}, "tle": {"line1": "1 37694U 99025ELK 25347.03855756  .00005231  00000+0  23714-2 0  9993", "line2": "2 37694  98.1986  54.6268 0147437  92.6483  27.3421 14.16656158517084"}}, "geometry": {"type": "Point", "coordinates": [44.12541740710149, 53.742489959296854]}}, {"type": "Feature", "properties": {"norad_id": 37695, "name": "FENGYUN 1C DEB", "group": "fengyun-1c-debris", "lat": 81.65506962910646, "lon": -69.06594425956543, "alt_km": 1343.0835835878415, "timestamp": "2025-12-13T22:39:29.999701+00:00", "meta": {"OBJECT_NAME": "FENGYUN 1C DEB", "OBJECT_ID": "1999-025ELL", "EPOCH": "2025-12-05T21:35:58.305696", "MEAN_MOTION": 13.64964142, "ECCENTRICITY": 0.04651514, "INCLINATION": 98.2113, "RA_OF_ASC_NODE": 24.2422, "ARG_OF_PERICENTER": 279.1549, "MEAN_ANOMALY": 266.6228, "EPHEMERIS_TYPE": 0, "CLASSIFICATION_TYPE": "U", "NORAD_CAT_ID": 37695, "ELEMENT_SET_NO": 999, "REV_AT_EPOCH": 89158, "BSTAR": 0.001955193, "MEAN_MOTION_DOT": 3.282e-05, "MEAN_MOTION_DDOT": 0}, "tle": {"line1": "1 37695U 99025ELL 25339.89998039  .00003282  00000+0  19552-2 0  9990", "line2": "2 37695  98.2113  24.2422 0465151 279.1549 266.6228 13.64964142891584"}}, "geometry": {"type": "Point", "coordinates": [-69.06594425956543, 81.65506962910646]}}, {"type": "Feature", "properties": {"norad_id": 37704, "name": "FENGYUN 1C DEB", "group": "fengyun-1c-debris", "lat": 77.91623214521766, "lon": 137.80998557571857, "alt_km": 1000.068163841127, "timestamp": "2025-12-13T22:39:29.999711+00:00", "meta": {"OBJECT_NAME": "FENGYUN 1C DEB", "OBJECT_ID": "1999-025ELV", "EPOCH": "2025-12-10T18:58:47.253216", "MEAN_MOTION": 13.70500661, "ECCENTRICITY": 0.02401356, "INCLINATION": 98.3199, "RA_OF_ASC_NODE": 178.1952, "ARG_OF_PERICENTER": 184.1814, "MEAN_ANOMALY": 190.5574, "EPHEMERIS_TYPE": 0, "CLASSIFICATION_TYPE": "U", "NORAD_CAT_ID": 37704, "ELEMENT_SET_NO": 999, "REV_AT_EPOCH": 62338, "BSTAR": 0.0019314833, "MEAN_MOTION_DOT": 2.062e-05, "MEAN_MOTION_DDOT": 0}, "tle": {"line1": "1 37704U 99025ELV 25344.79082469  .00002062  00000+0  19315-2 0  9999", "line2": "2 37704  98.3199 178.1952 0240135 184.1814 190.5574 13.70500661623389"}}, "geometry": {"type": "Point", "coordinates": [137.80998557571857, 77.91623214521766]}}, {"type": "Feature", "properties": {"norad_id": 37707, "name": "FENGYUN 1C DEB", "group": "fengyun-1c-debris", "lat": -18.496821499029068, "lon": 168.7445068136455, "alt_km": 811.161647788992, "timestamp": "2025-12-13T22:39:29.999721+00:00", "meta": {"OBJECT_NAME": "FENGYUN 1C DEB", "OBJECT_ID": "1999-025ELY", "EPOCH": "2025-12-10T18:43:33.805632", "MEAN_MOTION": 14.56419788, "ECCENTRICITY": 0.01436989, "INCLINATION": 100.2215, "RA_OF_ASC_NODE": 348.3329, "ARG_OF_PERICENTER": 31.5927, "MEAN_ANOMALY": 147.6034, "EPHEMERIS_TYPE": 0, "CLASSIFICATION_TYPE": "U", "NORAD_CAT_ID": 37707, "ELEMENT_SET_NO": 999, "REV_AT_EPOCH": 85537, "BSTAR": 0.0011022748, "MEAN_MOTION_DOT": 5.562e-05, "MEAN_MOTION_DDOT": 0}, "tle": {"line1": "1 37707U 99025ELY 25344.78025238  .00005562  00000+0  11023-2 0  9998", "line2": "2 37707 100.2215 348.3329 0143698  31.5927 147.6034 14.56419788855373"}}, "geometry": {"type": "Point", "coordinates": [168.7445068136455, -18.496821499029068]}}, {"type": "Feature", "properties": {"norad_id": 37712, "name": "FENGYUN 1C DEB", "group": "fengyun-1c-debris", "lat": -39.088268788243184, "lon": 134.23202076079465, "alt_km": 727.3997208086721, "timestamp": "2025-12-13T22:39:29.999731+00:00", "meta": {"OBJECT_NAME": "FENGYUN 1C DEB", "OBJECT_ID": "1999-025EMD", "EPOCH": "2025-12-13T03:36:15.433632", "MEAN_MOTION": 14.36430544, "ECCENTRICITY": 0.00791937, "INCLINATION": 98.8182, "RA_OF_ASC_NODE": 126.1751, "ARG_OF_PERICENTER": 352.3974, "MEAN_ANOMALY": 185.3639, "EPHEMERIS_TYPE": 0, "CLASSIFICATION_TYPE": "U", "NORAD_CAT_ID": 37712, "ELEMENT_SET_NO": 999, "REV_AT_EPOCH": 63966, "BSTAR": 0.00060059205, "MEAN_MOTION_DOT": 1.777e-05, "MEAN_MOTION_DDOT": 0}, "tle": {"line1": "1 37712U 99025EMD 25347.15017863  .00001777  00000+0  60059-3 0  9991", "line2": "2 37712  98.8182 126.1751 0079193 352.3974 185.3639 14.36430544639662"}}, "geometry": {"type": "Point", "coordinates": [134.23202076079465, -39.088268788243184]}}, {"type": "Feature", "properties": {"norad_id": 37714, "name": "FENGYUN 1C DEB", "group": "fengyun-1c-debris", "lat": -20.025092747055222, "lon": -83.59797005800085, "alt_km": 806.1575220343248, "timestamp": "2025-12-13T22:39:29.999742+00:00", "meta": {"OBJECT_NAME": "FENGYUN 1C DEB", "OBJECT_ID": "1999-025EMF", "EPOCH": "2025-12-09T13:46:38.631072", "MEAN_MOTION": 14.32176518, "ECCENTRICITY": 0.0048599, "INCLINATION": 98.8929, "RA_OF_ASC_NODE": 95.1946, "ARG_OF_PERICENTER": 93.8012, "MEAN_ANOMALY": 266.8729, "EPHEMERIS_TYPE": 0, "CLASSIFICATION_TYPE": "U", "NORAD_CAT_ID": 37714, "ELEMENT_SET_NO": 999, "REV_AT_EPOCH": 57464, "BSTAR": 0.0030577, "MEAN_MOTION_DOT": 8.305e-05, "MEAN_MOTION_DDOT": 0}, "tle": {"line1": "1 37714U 99025EMF 25343.57405823  .00008305  00000+0  30577-2 0  9997", "line2": "2 37714  98.8929  95.1946 0048599  93.8012 266.8729 14.32176518574645"}}, "geometry": {"type": "Point", "coordinates": [-83.59797005800085, -20.025092747055222]}}, {"type": "Feature", "properties": {"norad_id": 37715, "name": "FENGYUN 1C DEB", "group": "fengyun-1c-debris", "lat": -24.78971221883941, "lon": 171.49724684990585, "alt_km": 923.4014688039433, "timestamp": "2025-12-13T22:39:29.999752+00:00", "meta": {"OBJECT_NAME": "FENGYUN 1C DEB", "OBJECT_ID": "1999-025EMG", "EPOCH": "2025-12-08T07:32:41.570592", "MEAN_MOTION": 13.95403358, "ECCENTRICITY": 0.01145342, "INCLINATION": 98.9562, "RA_OF_ASC_NODE": 350.2044, "ARG_OF_PERICENTER": 124.1518, "MEAN_ANOMALY": 254.1782, "EPHEMERIS_TYPE": 0, "CLASSIFICATION_TYPE": "U", "NORAD_CAT_ID": 37715, "ELEMENT_SET_NO": 999, "REV_AT_EPOCH": 57742, "BSTAR": 0.0010104518, "MEAN_MOTION_DOT": 1.405e-05, "MEAN_MOTION_DDOT": 0}, "tle": {"line1": "1 37715U 99025EMG 25342.31437003  .00001405  00000+0  10105-2 0  9993", "line2": "2 37715  98.9562 350.2044 0114534 124.1518 254.1782 13.95403358577427"}}, "geometry": {"type": "Point", "coordinates": [171.49724684990585, -24.78971221883941]}}]}